NORAD_CAT_ID,OBJECT_NAME,OBJECT_TYPE,EPOCH,MEAN_MOTION,ECCENTRICITY,INCLINATION,RA_OF_ASC_NODE,ARG_OF_PERICENTER,MEAN_ANOMALY,BSTAR,MEAN_MOTION_DOT,MEAN_MOTION_DDOT,TLE_LINE0,TLE_LINE1,TLE_LINE2,SEMIMAJOR_AXIS,PERIOD,APOGEE,PERIGEE,DECAYED
54789.0,STARLINK-5446,PAYLOAD,2023-08-19 05:58:32,15.08842382,0.0001296,53.2162,244.2681,82.1535,277.9604,-2.1567e-05,-6.31e-06,0.0,0 STARLINK-5446,1 54789U 22175AH  23231.24898469 -.00000631  00000-0 -21567-4 0  9998,2 54789  53.2162 244.2681 0001296  82.1535 277.9604 15.08842382 37267,6917.873,95.437,540.635,538.842,0.0
54789.0,STARLINK-5446,PAYLOAD,2023-08-20 04:13:56,15.08830609,0.0001255,53.2162,240.1034,92.6762,267.4373,-3.5595e-05,-8.54e-06,0.0,0 STARLINK-5446,1 54789U 22175AH  23232.17635187 -.00000854  00000-0 -35595-4 0  9990,2 54789  53.2162 240.1034 0001255  92.6762 267.4373 15.08830609 37409,6917.909,95.438,540.642,538.906,0.0
54789.0,STARLINK-5446,PAYLOAD,2023-08-21 07:15:29,15.08838848,0.0001287,53.2167,235.0493,93.99,266.124,-5.5938e-06,-3.77e-06,0.0,0 STARLINK-5446,1 54789U 22175AH  23233.30242928 -.00000377  00000-0 -55938-5 0  9997,2 54789  53.2167 235.0493 0001287  93.9900 266.1240 15.08838848 37579,6917.884,95.438,540.639,538.859,0.0
54789.0,STARLINK-5446,PAYLOAD,2023-08-22 05:30:54,15.08831092,0.000125,53.216,230.8856,91.507,268.6065,1.979e-05,2.7e-07,0.0,0 STARLINK-5446,1 54789U 22175AH  23234.22979603  .00000027  00000-0  19790-4 0  9991,2 54789  53.2160 230.8856 0001250  91.5070 268.6065 15.08831092 37712,6917.908,95.438,540.637,538.908,0.0
54789.0,STARLINK-5446,PAYLOAD,2023-08-23 08:32:27,15.08840731,0.0001291,53.2164,225.8302,90.0703,270.0437,3.2193e-05,2.25e-06,0.0,0 STARLINK-5446,1 54789U 22175AH  23235.35587266  .00000225  00000-0  32193-4 0  9998,2 54789  53.2164 225.8302 0001291  90.0703 270.0437 15.08840731 37886,6917.878,95.438,540.636,538.85,0.0
54789.0,STARLINK-5446,PAYLOAD,2023-08-24 11:34:00,15.08841953,0.0001397,53.2168,220.7728,86.9517,273.1635,4.853e-05,4.85e-06,0.0,0 STARLINK-5446,1 54789U 22175AH  23236.48195200  .00000485  00000-0  48530-4 0  9996,2 54789  53.2168 220.7728 0001397  86.9517 273.1635 15.08841953 38051,6917.874,95.437,540.706,538.773,0.0
54789.0,STARLINK-5446,PAYLOAD,2023-08-24 22:41:43,15.08836699,0.0001473,53.2166,218.692,83.8831,276.2329,9.71e-07,-2.73e-06,0.0,0 STARLINK-5446,1 54789U 22175AH  23236.94563741 -.00000273  00000-0  97100-6 0  9991,2 54789  53.2166 218.6920 0001473  83.8831 276.2329 15.08836699 40282,6917.89,95.438,540.774,538.736,0.0
54789.0,STARLINK-5446,PAYLOAD,2023-08-25 05:03:15,15.08842749,0.0001397,53.216,217.5031,92.1689,267.9463,2.2844e-05,7.6e-07,0.0,0 STARLINK-5446,1 54789U 22175AH  23237.21059192  .00000076  00000-0  22844-4 0  9993,2 54789  53.2160 217.5031 0001397  92.1689 267.9463 15.08842749 38169,6917.872,95.437,540.703,538.771,0.0
54789.0,STARLINK-5446,PAYLOAD,2023-08-25 22:32:29,15.08837043,0.0001418,53.2153,214.2336,80.304,279.8112,9.7259e-06,-1.33e-06,0.0,0 STARLINK-5446,1 54789U 22175AH  23237.93923590 -.00000133  00000-0  97259-5 0  9992,2 54789  53.2153 214.2336 0001418  80.3040 279.8112 15.08837043 38273,6917.889,95.438,540.735,538.773,0.0
54789.0,STARLINK-5446,PAYLOAD,2023-08-26 08:04:48,15.08841093,0.0001442,53.2168,212.4498,86.983,273.1327,-2.6945e-06,-3.31e-06,0.0,0 STARLINK-5446,1 54789U 22175AH  23238.33667417 -.00000331  00000-0 -26945-5 0  9995,2 54789  53.2168 212.4498 0001442  86.9830 273.1327 15.08841093 40496,6917.877,95.437,540.74,538.744,0.0
54789.0,STARLINK-5446,PAYLOAD,2023-08-26 22:23:16,15.08837854,0.0001448,53.2162,209.7731,82.732,277.3837,1.6207e-05,-3e-07,0.0,0 STARLINK-5446,1 54789U 22175AH  23238.93283508 -.00000030  00000-0  16207-4 0  9990,2 54789  53.2162 209.7731 0001448  82.7320 277.3837 15.08837854 40585,6917.887,95.438,540.754,538.75,0.0
54789.0,STARLINK-5446,PAYLOAD,2023-08-27 01:34:03,15.0884116,0.0001483,53.2171,209.1787,91.4887,268.6275,1.5785e-05,-3.7e-07,0.0,0 STARLINK-5446,1 54789U 22175AH  23239.06531284 -.00000037  00000-0  15785-4 0  9999,2 54789  53.2171 209.1787 0001483  91.4887 268.6275 15.08841160 38440,6917.877,95.437,540.768,538.716,0.0
54789.0,STARLINK-5446,PAYLOAD,2023-08-27 04:44:49,15.08842959,0.0001526,53.2173,208.584,91.7868,268.3299,3.1161e-05,2.08e-06,0.0,0 STARLINK-5446,1 54789U 22175AH  23239.19779103  .00000208  00000-0  31161-4 0  9992,2 54789  53.2173 208.5840 0001526  91.7868 268.3299 15.08842959 40628,6917.871,95.437,540.792,538.681,0.0
54789.0,STARLINK-5446,PAYLOAD,2023-08-27 22:14:04,15.08833428,0.0001554,53.2173,205.3132,92.7973,267.3197,-1.9003e-05,-5.9e-06,0.0,0 STARLINK-5446,1 54789U 22175AH  23239.92643931 -.00000590  00000-0 -19003-4 0  9999,2 54789  53.2173 205.3132 0001554  92.7973 267.3197 15.08833428 40735,6917.9,95.438,540.841,538.69,0.0
54789.0,STARLINK-5446,PAYLOAD,2023-08-28 07:46:22,15.08837007,0.0001371,53.2174,203.5301,90.4439,269.671,2.1416e-05,5.3e-07,0.0,0 STARLINK-5446,1 54789U 22175AH  23240.32387655  .00000053  00000-0  21416-4 0  9996,2 54789  53.2174 203.5301 0001371  90.4439 269.6710 15.08837007 38632,6917.89,95.438,540.703,538.806,0.0
54789.0,STARLINK-5446,PAYLOAD,2023-08-28 20:29:28,15.08834437,0.0001336,53.2167,201.1508,98.602,261.5124,-1.5672e-05,-5.37e-06,0.0,0 STARLINK-5446,1 54789U 22175AH  23240.85380025 -.00000537  00000-0 -15672-4 0  9994,2 54789  53.2167 201.1508 0001336  98.6020 261.5124 15.08834437 40877,6917.897,95.438,540.687,538.838,0.0
54789.0,STARLINK-5446,PAYLOAD,2023-08-29 13:58:42,15.08836044,0.0001356,53.2168,197.8791,98.0956,262.019,-4.2443e-05,-9.63e-06,0.0,0 STARLINK-5446,1 54789U 22175AH  23241.58244177 -.00000963  00000-0 -42443-4 0  9991,2 54789  53.2168 197.8791 0001356  98.0956 262.0190 15.08836044 40984,6917.892,95.438,540.696,538.819,0.0
54789.0,STARLINK-5446,PAYLOAD,2023-08-30 01:06:25,15.08831355,0.0001312,53.217,195.7975,96.1681,263.946,-1.3288e-05,-4.99e-06,0.0,0 STARLINK-5446,1 54789U 22175AH  23242.04612616 -.00000499  00000-0 -13288-4 0  9999,2 54789  53.2170 195.7975 0001312  96.1681 263.9460 15.08831355 38891,6917.907,95.438,540.679,538.864,0.0
54789.0,STARLINK-5446,PAYLOAD,2023-08-30 07:27:57,15.08837045,0.0001302,53.2169,194.6079,94.924,265.1901,4.6125e-05,4.46e-06,0.0,0 STARLINK-5446,1 54789U 22175AH  23242.31108145  .00000446  00000-0  46125-4 0  9992,2 54789  53.2169 194.6079 0001302  94.9240 265.1901 15.08837045 38939,6917.889,95.438,540.655,538.854,0.0
54789.0,STARLINK-5446,PAYLOAD,2023-08-30 13:49:30,15.08832825,0.0001307,53.2162,193.416,84.6581,275.456,-3.5453e-05,-8.52e-06,0.0,0 STARLINK-5446,1 54789U 22175AH  23242.57604769 -.00000852  00000-0 -35453-4 0  9998,2 54789  53.2162 193.4160 0001307  84.6581 275.4560 15.08832825 38979,6917.902,95.438,540.671,538.863,0.0
54789.0,STARLINK-5446,PAYLOAD,2023-08-31 05:43:21,15.08836843,4.81e-05,53.2171,190.4455,137.2272,222.8758,3.9876e-05,3.47e-06,0.0,0 STARLINK-5446,1 54789U 22175AH  23243.23844058  .00000347  00000-0  39876-4 0  9999,2 54789  53.2171 190.4455 0000481 137.2272 222.8758 15.08836843 39078,6917.89,95.438,540.088,539.422,0.0
54789.0,STARLINK-5446,PAYLOAD,2023-09-01 13:31:05,15.08804549,0.0001481,53.2144,184.502,105.8786,254.237,0.00041089,6.251e-05,0.0,0 STARLINK-5446,1 54789U 22175AH  23244.56325536  .00006251  00000-0  41089-3 0  9999,2 54789  53.2144 184.5020 0001481 105.8786 254.2370 15.08804549 41432,6917.989,95.44,540.878,538.829,0.0
54789.0,STARLINK-5446,PAYLOAD,2023-09-02 02:14:08,15.08846557,0.0001313,53.215,182.12,83.5238,276.5904,0.00014125,1.961e-05,0.0,0 STARLINK-5446,1 54789U 22175AH  23245.09315448  .00001961  00000-0  14125-3 0  9993,2 54789  53.2150 182.1200 0001313  83.5238 276.5904 15.08846557 39354,6917.86,95.437,540.634,538.817,0.0
54789.0,STARLINK-5446,PAYLOAD,2023-09-02 19:43:23,15.08840306,7.24e-05,53.2192,178.8477,87.5783,272.5292,-2.036e-05,-6.12e-06,0.0,0 STARLINK-5446,1 54789U 22175AH  23245.82180297 -.00000612  00000-0 -20360-4 0  9999,2 54789  53.2192 178.8477 0000724  87.5783 272.5292 15.08840306 41627,6917.879,95.438,540.245,539.244,0.0
54789.0,STARLINK-5446,PAYLOAD,2023-09-03 02:04:56,15.08841379,8.64e-05,53.2184,177.6584,84.0101,276.0989,-1.6048e-05,-5.43e-06,0.0,0 STARLINK-5446,1 54789U 22175AH  23246.08676186 -.00000543  00000-0 -16048-4 0  9996,2 54789  53.2184 177.6584 0000864  84.0101 276.0989 15.08841379 39502,6917.876,95.437,540.339,539.143,0.0
54789.0,STARLINK-5446,PAYLOAD,2023-09-03 05:15:42,15.08845479,0.0001205,53.2155,177.062,88.381,271.732,2.7873e-06,-2.43e-06,0.0,0 STARLINK-5446,1 54789U 22175AH  23246.21923827 -.00000243  00000-0  27873-5 0  9993,2 54789  53.2155 177.0620 0001205  88.3810 271.7320 15.08845479 41687,6917.864,95.437,540.562,538.895,0.0
54789.0,STARLINK-5446,PAYLOAD,2023-09-04 01:55:43,15.088354,9.44e-05,53.2173,173.1975,96.1382,263.9718,-6.8781e-05,-1.382e-05,0.0,0 STARLINK-5446,1 54789U 22175AH  23247.08036745 -.00001382  00000-0 -68781-4 0  9991,2 54789  53.2173 173.1975 0000944  96.1382 263.9718 15.08835400 39658,6917.894,95.438,540.412,539.106,0.0
54789.0,STARLINK-5446,PAYLOAD,2023-09-04 05:06:29,15.08832676,0.0001036,53.2167,172.601,98.7136,261.3974,-6.4009e-06,-3.9e-06,0.0,0 STARLINK-5446,1 54789U 22175AH  23247.21284707 -.00000390  00000-0 -64009-5 0  9997,2 54789  53.2167 172.6010 0001036  98.7136 261.3974 15.08832676 41834,6917.903,95.438,540.484,539.051,0.0
54789.0,STARLINK-5446,PAYLOAD,2023-09-05 01:46:30,15.08834701,0.0001036,53.217,168.7362,97.321,262.79,-7.8124e-06,-4.12e-06,0.0,0 STARLINK-5446,1 54789U 22175AH  23248.07396904 -.00000412  00000-0 -78124-5 0  9993,2 54789  53.2170 168.7362 0001036  97.3210 262.7900 15.08834701 41961,6917.897,95.438,540.478,539.045,0.0
54789.0,STARLINK-5446,PAYLOAD,2023-09-06 01:37:17,15.08838765,0.0001029,53.2168,164.2769,99.9756,260.1353,6.3442e-05,7.22e-06,0.0,0 STARLINK-5446,1 54789U 22175AH  23249.06756689  .00000722  00000-0  63442-4 0  9991,2 54789  53.2168 164.2769 0001029  99.9756 260.1353 15.08838765 39959,6917.884,95.438,540.461,539.037,0.0
